[{"OBJECT_NAME":"YAOGAN-40 03A","OBJECT_ID":"2025-199A","EPOCH":"2026-03-09T23:03:31.278816","MEAN_MOTION":14.26419606,"ECCENTRICITY":0.00148498,"INCLINATION":85.9829,"RA_OF_ASC_NODE":86.7514,"ARG_OF_PERICENTER":35.6299,"MEAN_ANOMALY":324.588,"EPHEMERIS_TYPE":0,"CLASSIFICATION_TYPE":"U","NORAD_CAT_ID":65544,"ELEMENT_SET_NO":999,"REV_AT_EPOCH":2627,"BSTAR":0.00017546994,"MEAN_MOTION_DOT":4.42e-6,"MEAN_MOTION_DDOT":0},{"OBJECT_NAME":"ARIANE 1 DEB","OBJECT_ID":"1986-019HX","EPOCH":"2026-03-09T23:39:44.861760","MEAN_MOTION":14.13634022,"ECCENTRICITY":0.01178932,"INCLINATION":98.5289,"RA_OF_ASC_NODE":70.3151,"ARG_OF_PERICENTER":38.4634,"MEAN_ANOMALY":15.2563,"EPHEMERIS_TYPE":0,"CLASSIFICATION_TYPE":"U","NORAD_CAT_ID":17543,"ELEMENT_SET_NO":999,"REV_AT_EPOCH":1795,"BSTAR":0.00045657156,"MEAN_MOTION_DOT":8.8e-6,"MEAN_MOTION_DDOT":0}]
